{"type": "FeatureCollection", "features": [ {"type": "Feature", "properties": {"norad_id": 31899, "name": "FENGYUN 1C DEB", "group": "fengyun-1c-debris", "lat": 47.413267711190706, "lon": 31.63872819837935, "alt_km": 1005.9788668218762, "timestamp": "2025-12-09T04:51:47.777851+00:00", "meta": {"OBJECT_NAME": "FENGYUN 1C DEB", "OBJECT_ID": "1999-025CLA", "EPOCH": "2025-12-07T00:33:12.035808", "MEAN_MOTION": 13.83487543, "ECCENTRICITY": 0.01833749, "INCLINATION": 102.0834, "RA_OF_ASC_NODE": 42.3236, "ARG_OF_PERICENTER": 171.0464, "MEAN_ANOMALY": 189.4024, "EPHEMERIS_TYPE": 0, "CLASSIFICATION_TYPE": "U", "NORAD_CAT_ID": 31899, "ELEMENT_SET_NO": 999, "REV_AT_EPOCH": 67485, "BSTAR": 0.0022774181, "MEAN_MOTION_DOT": 2.792e-05, "MEAN_MOTION_DDOT": 0}, "tle": {"line1": "1 31899U 99025CLA 25341.02305597  .00002792  00000+0  22774-2 0  9994", "line2": "2 31899 102.0834  42.3236 0183374 171.0464 189.4024 13.83487543674853"}}, "geometry": {"type": "Point", "coordinates": [31.63872819837935, 47.413267711190706]}}, {"type": "Feature", "properties": {"norad_id": 31901, "name": "FENGYUN 1C DEB", "group": "fengyun-1c-debris", "lat": 20.376898281485378, "lon": -58.61280276969261, "alt_km": 1009.6138959316013, "timestamp": "2025-12-09T04:51:47.777861+00:00", "meta": {"OBJECT_NAME": "FENGYUN 1C DEB", "OBJECT_ID": "1999-025CLC", "EPOCH": "2025-12-08T14:58:56.621280", "MEAN_MOTION": 13.94140799, "ECCENTRICITY": 0.0131038, "INCLINATION": 98.6002, "RA_OF_ASC_NODE": 304.0709, "ARG_OF_PERICENTER": 200.9847, "MEAN_ANOMALY": 158.5909, "EPHEMERIS_TYPE": 0, "CLASSIFICATION_TYPE": "U", "NORAD_CAT_ID": 31901, "ELEMENT_SET_NO": 999, "REV_AT_EPOCH": 63350, "BSTAR": 0.00033622, "MEAN_MOTION_DOT": 4.38e-06, "MEAN_MOTION_DDOT": 0}, "tle": {"line1": "1 31901U 99025CLC 25342.62426645  .00000438  00000+0  33622-3 0  9993", "line2": "2 31901  98.6002 304.0709 0131038 200.9847 158.5909 13.94140799633501"}}, "geometry": {"type": "Point", "coordinates": [-58.61280276969261, 20.376898281485378]}}, {"type": "Feature", "properties": {"norad_id": 31902, "name": "FENGYUN 1C DEB", "group": "fengyun-1c-debris", "lat": 38.05771799460001, "lon": -43.53298622029505, "alt_km": 876.1945836369223, "timestamp": "2025-12-09T04:51:47.777871+00:00", "meta": {"OBJECT_NAME": "FENGYUN 1C DEB", "OBJECT_ID": "1999-025CLD", "EPOCH": "2025-12-08T05:09:36.152928", "MEAN_MOTION": 14.23271328, "ECCENTRICITY": 0.01805513, "INCLINATION": 98.5067, "RA_OF_ASC_NODE": 322.241, "ARG_OF_PERICENTER": 162.3105, "MEAN_ANOMALY": 220.5806, "EPHEMERIS_TYPE": 0, "CLASSIFICATION_TYPE": "U", "NORAD_CAT_ID": 31902, "ELEMENT_SET_NO": 999, "REV_AT_EPOCH": 64727, "BSTAR": 0.00035467966, "MEAN_MOTION_DOT": 9.06e-06, "MEAN_MOTION_DDOT": 0}, "tle": {"line1": "1 31902U 99025CLD 25342.21500177  .00000906  00000+0  35468-3 0  9992", "line2": "2 31902  98.5067 322.2410 0180551 162.3105 220.5806 14.23271328647276"}}, "geometry": {"type": "Point", "coordinates": [-43.53298622029505, 38.05771799460001]}}, {"type": "Feature", "properties": {"norad_id": 31903, "name": "FENGYUN 1C DEB", "group": "fengyun-1c-debris", "lat": 41.438710738768584, "lon": 159.49721212699137, "alt_km": 689.2012698762865, "timestamp": "2025-12-09T04:51:47.777881+00:00", "meta": {"OBJECT_NAME": "FENGYUN 1C DEB", "OBJECT_ID": "1999-025CLE", "EPOCH": "2025-12-08T05:13:34.820832", "MEAN_MOTION": 14.60433074, "ECCENTRICITY": 0.01302705, "INCLINATION": 99.2743, "RA_OF_ASC_NODE": 330.1014, "ARG_OF_PERICENTER": 49.5229, "MEAN_ANOMALY": 311.7237, "EPHEMERIS_TYPE": 0, "CLASSIFICATION_TYPE": "U", "NORAD_CAT_ID": 31903, "ELEMENT_SET_NO": 999, "REV_AT_EPOCH": 97329, "BSTAR": 0.0010287101, "MEAN_MOTION_DOT": 5.556e-05, "MEAN_MOTION_DDOT": 0}, "tle": {"line1": "1 31903U 99025CLE 25342.21776413  .00005556  00000+0  10287-2 0  9998", "line2": "2 31903  99.2743 330.1014 0130270  49.5229 311.7237 14.60433074973294"}}, "geometry": {"type": "Point", "coordinates": [159.49721212699137, 41.438710738768584]}}, {"type": "Feature", "properties": {"norad_id": 31905, "name": "FENGYUN 1C DEB", "group": "fengyun-1c-debris", "lat": -41.72516290534248, "lon": 130.98219953047249, "alt_km": 852.2222621303044, "timestamp": "2025-12-09T04:51:47.777890+00:00", "meta": {"OBJECT_NAME": "FENGYUN 1C DEB", "OBJECT_ID": "1999-025CLG", "EPOCH": "2025-12-08T09:24:58.830912", "MEAN_MOTION": 14.33079386, "ECCENTRICITY": 0.01968405, "INCLINATION": 99.1505, "RA_OF_ASC_NODE": 318.3901, "ARG_OF_PERICENTER": 106.5348, "MEAN_ANOMALY": 255.7558, "EPHEMERIS_TYPE": 0, "CLASSIFICATION_TYPE": "U", "NORAD_CAT_ID": 31905, "ELEMENT_SET_NO": 999, "REV_AT_EPOCH": 96562, "BSTAR": 0.00082376124, "MEAN_MOTION_DOT": 2.75e-05, "MEAN_MOTION_DDOT": 0}, "tle": {"line1": "1 31905U 99025CLG 25342.39234758  .00002750  00000+0  82376-3 0  9992", "line2": "2 31905  99.1505 318.3901 0196840 106.5348 255.7558 14.33079386965628"}}, "geometry": {"type": "Point", "coordinates": [130.98219953047249, -41.72516290534248]}}, {"type": "Feature", "properties": {"norad_id": 31906, "name": "FENGYUN 1C DEB", "group": "fengyun-1c-debris", "lat": -42.274436327239286, "lon": 124.35179414388973, "alt_km": 854.3612612131192, "timestamp": "2025-12-09T04:51:47.777901+00:00", "meta": {"OBJECT_NAME": "FENGYUN 1C DEB", "OBJECT_ID": "1999-025CLH", "EPOCH": "2025-12-07T07:41:24.163584", "MEAN_MOTION": 14.24547765, "ECCENTRICITY": 0.00528003, "INCLINATION": 98.6937, "RA_OF_ASC_NODE": 114.4932, "ARG_OF_PERICENTER": 139.8437, "MEAN_ANOMALY": 250.0197, "EPHEMERIS_TYPE": 0, "CLASSIFICATION_TYPE": "U", "NORAD_CAT_ID": 31906, "ELEMENT_SET_NO": 999, "REV_AT_EPOCH": 95052, "BSTAR": 0.0042449547, "MEAN_MOTION_DOT": 9.962e-05, "MEAN_MOTION_DDOT": 0}, "tle": {"line1": "1 31906U 99025CLH 25341.32041856  .00009962  00000+0  42450-2 0  9990", "line2": "2 31906  98.6937 114.4932 0052800 139.8437 250.0197 14.24547765950527"}}, "geometry": {"type": "Point", "coordinates": [124.35179414388973, -42.274436327239286]}}, {"type": "Feature", "properties": {"norad_id": 31910, "name": "FENGYUN 1C DEB", "group": "fengyun-1c-debris", "lat": -73.62307002727286, "lon": 157.46955469443847, "alt_km": 734.2718401097327, "timestamp": "2025-12-09T04:51:47.777911+00:00", "meta": {"OBJECT_NAME": "FENGYUN 1C DEB", "OBJECT_ID": "1999-025CLM", "EPOCH": "2025-12-08T19:24:24.710112", "MEAN_MOTION": 14.47606562, "ECCENTRICITY": 0.0227878, "INCLINATION": 97.6669, "RA_OF_ASC_NODE": 4.3939, "ARG_OF_PERICENTER": 167.6728, "MEAN_ANOMALY": 193.0175, "EPHEMERIS_TYPE": 0, "CLASSIFICATION_TYPE": "U", "NORAD_CAT_ID": 31910, "ELEMENT_SET_NO": 999, "REV_AT_EPOCH": 64312, "BSTAR": 0.0011298, "MEAN_MOTION_DOT": 5.731e-05, "MEAN_MOTION_DDOT": 0}, "tle": {"line1": "1 31910U 99025CLM 25342.80861933  .00005731  00000+0  11298-2 0  9991", "line2": "2 31910  97.6669   4.3939 0227878 167.6728 193.0175 14.47606562643121"}}, "geometry": {"type": "Point", "coordinates": [157.46955469443847, -73.62307002727286]}}, {"type": "Feature", "properties": {"norad_id": 31913, "name": "FENGYUN 1C DEB", "group": "fengyun-1c-debris", "lat": 29.41684918009166, "lon": -101.12006122509125, "alt_km": 864.2627822621143, "timestamp": "2025-12-09T04:51:47.777921+00:00", "meta": {"OBJECT_NAME": "FENGYUN 1C DEB", "OBJECT_ID": "1999-025CLQ", "EPOCH": "2025-12-08T01:06:13.929120", "MEAN_MOTION": 13.91009259, "ECCENTRICITY": 0.02081952, "INCLINATION": 99.2947, "RA_OF_ASC_NODE": 263.0201, "ARG_OF_PERICENTER": 324.8669, "MEAN_ANOMALY": 33.8906, "EPHEMERIS_TYPE": 0, "CLASSIFICATION_TYPE": "U", "NORAD_CAT_ID": 31913, "ELEMENT_SET_NO": 999, "REV_AT_EPOCH": 55821, "BSTAR": 0.0095286258, "MEAN_MOTION_DOT": 0.00014234, "MEAN_MOTION_DDOT": 0}, "tle": {"line1": "1 31913U 99025CLQ 25342.04599455  .00014234  00000+0  95286-2 0  9994", "line2": "2 31913  99.2947 263.0201 0208195 324.8669  33.8906 13.91009259558215"}}, "geometry": {"type": "Point", "coordinates": [-101.12006122509125, 29.41684918009166]}}, {"type": "Feature", "properties": {"norad_id": 31914, "name": "FENGYUN 1C DEB", "group": "fengyun-1c-debris", "lat": 79.95251743500656, "lon": 142.14224610305243, "alt_km": 570.4491475149471, "timestamp": "2025-12-09T04:51:47.777931+00:00", "meta": {"OBJECT_NAME": "FENGYUN 1C DEB", "OBJECT_ID": "1999-025CLR", "EPOCH": "2025-12-08T08:41:10.969728", "MEAN_MOTION": 14.55700923, "ECCENTRICITY": 0.01832145, "INCLINATION": 99.0278, "RA_OF_ASC_NODE": 205.0398, "ARG_OF_PERICENTER": 82.3958, "MEAN_ANOMALY": 279.8005, "EPHEMERIS_TYPE": 0, "CLASSIFICATION_TYPE": "U", "NORAD_CAT_ID": 31914, "ELEMENT_SET_NO": 999, "REV_AT_EPOCH": 68409, "BSTAR": 0.0002711521, "MEAN_MOTION_DOT": 1.424e-05, "MEAN_MOTION_DDOT": 0}, "tle": {"line1": "1 31914U 99025CLR 25342.36193252  .00001424  00000+0  27115-3 0  9999", "line2": "2 31914  99.0278 205.0398 0183214  82.3958 279.8005 14.55700923684090"}}, "geometry": {"type": "Point", "coordinates": [142.14224610305243, 79.95251743500656]}}, {"type": "Feature", "properties": {"norad_id": 31915, "name": "FENGYUN 1C DEB", "group": "fengyun-1c-debris", "lat": 76.10016628990157, "lon": -36.725073978501484, "alt_km": 898.8682537973536, "timestamp": "2025-12-09T04:51:47.777941+00:00", "meta": {"OBJECT_NAME": "FENGYUN 1C DEB", "OBJECT_ID": "1999-025CLS", "EPOCH": "2025-12-08T18:18:50.868864", "MEAN_MOTION": 14.16191154, "ECCENTRICITY": 0.0100922, "INCLINATION": 98.6308, "RA_OF_ASC_NODE": 0.7089, "ARG_OF_PERICENTER": 281.5001, "MEAN_ANOMALY": 77.4855, "EPHEMERIS_TYPE": 0, "CLASSIFICATION_TYPE": "U", "NORAD_CAT_ID": 31915, "ELEMENT_SET_NO": 999, "REV_AT_EPOCH": 64051, "BSTAR": 0.0016282, "MEAN_MOTION_DOT": 3.344e-05, "MEAN_MOTION_DDOT": 0}, "tle": {"line1": "1 31915U 99025CLS 25342.76308876  .00003344  00000+0  16282-2 0  9999", "line2": "2 31915  98.6308   0.7089 0100922 281.5001  77.4855 14.16191154640515"}}, "geometry": {"type": "Point", "coordinates": [-36.725073978501484, 76.10016628990157]}}]}